IRIDIUM 7 [-]           
1 24793U 97020B   24058.92792486  .00000600  00000+0  20345-3 0  9991
2 24793  86.3999  15.9781 0001945  88.9354 271.2065 14.35095584403710
IRIDIUM 5 [-]           
1 24795U 97020D   24058.92807513  .00004549  00000+0  44266-3 0  9995
2 24795  86.3916 301.3070 0126312  34.6277 326.3090 14.86385667414680
IRIDIUM 4 [-]           
1 24796U 97020E   24059.14484401  .00000691  00000+0  23109-3 0  9995
2 24796  86.4001  13.0828 0002115  83.2360 276.9078 14.36009961404301
IRIDIUM 914 [-]         
1 24836U 97030A   24059.19143275  .00000756  00000+0  23464-3 0  9993
2 24836  86.3962  23.0524 0002627  42.8740 317.2664 14.39847455400853
IRIDIUM 16 [-]          
1 24841U 97030F   24058.93639667  .00000702  00000+0  22682-3 0  9997
2 24841  86.4017  44.8521 0002844 135.0620 225.0809 14.37731588398694
IRIDIUM 911 [-]         
1 24842U 97030G   24059.03536278  .00000912  00000+0  24865-3 0  9992
2 24842  86.4444  44.0299 0012330 236.5469 123.4556 14.46321273406351
IRIDIUM 17 [-]          
1 24870U 97034B   24058.76614986  .00000596  00000+0  19510-3 0  9998
2 24870  86.3902  74.5709 0003667 107.2815 252.8783 14.36821939395298
IRIDIUM 920 [-]         
1 24871U 97034C   24058.92094884  .00000652  00000+0  19839-3 0  9993
2 24871  86.3939  54.8262 0010616 199.1124 160.9678 14.40547596398136
